{
  "type": "FeatureCollection",
  "features": [
    {
      "type": "Feature",
      "properties": {
        "norad_id": 66520,
        "name": "STARLINK-35952",
        "group": "last-30-days",
        "lat": -41.85759134180404,
        "lon": 12.294337220578994,
        "alt_km": 382.7439342598391,
        "timestamp": "2025-12-07T05:38:08.684544+00:00",
        "meta_object_name": "STARLINK-35952",
        "meta_object_id": "2025-265E",
        "meta_epoch": "2025-12-06T14:00:01.999872",
        "meta_mean_motion": 15.65086386,
        "meta_eccentricity": 0.00013745,
        "meta_inclination": 42.9995,
        "meta_ra_of_asc_node": 90.2228,
        "meta_arg_of_pericenter": 286.3919,
        "meta_mean_anomaly": 283.671,
        "meta_ephemeris_type": 0,
        "meta_classification_type": "U",
        "meta_norad_cat_id": 66520,
        "meta_element_set_no": 999,
        "meta_rev_at_epoch": 400,
        "meta_bstar": -0.021655433,
        "meta_mean_motion_dot": -0.01939085,
        "meta_mean_motion_ddot": 0,
        "tle_line1": "1 66520U 25265E   25340.58335648 -.01939085  00000+0 -21655-1 0  9991",
        "tle_line2": "2 66520  42.9995  90.2228 0001374 286.3919 283.6710 15.65086386  4004"
      },
      "geometry": {
        "type": "Point",
        "coordinates": [
          12.294337220578994,
          -41.85759134180404
        ]
      }
    },
    {
      "type": "Feature",
      "properties": {
        "norad_id": 66521,
        "name": "STARLINK-35915",
        "group": "last-30-days",
        "lat": -41.474038341664496,
        "lon": 14.787401358924297,
        "alt_km": 382.8904048576278,
        "timestamp": "2025-12-07T05:38:08.684554+00:00",
        "meta_object_name": "STARLINK-35915",
        "meta_object_id": "2025-265F",
        "meta_epoch": "2025-12-06T14:00:01.999872",
        "meta_mean_motion": 15.65136583,
        "meta_eccentricity": 0.00011978,
        "meta_inclination": 43.0003,
        "meta_ra_of_asc_node": 90.2173,
        "meta_arg_of_pericenter": 283.3062,
        "meta_mean_anomaly": 288.636,
        "meta_ephemeris_type": 0,
        "meta_classification_type": "U",
        "meta_norad_cat_id": 66521,
        "meta_element_set_no": 999,
        "meta_rev_at_epoch": 400,
        "meta_bstar": -0.022241716,
        "meta_mean_motion_dot": -0.01988655,
        "meta_mean_motion_ddot": 0,
        "tle_line1": "1 66521U 25265F   25340.58335648 -.01988655  00000+0 -22242-1 0  9992",
        "tle_line2": "2 66521  43.0003  90.2173 0001197 283.3062 288.6360 15.65136583  4006"
      },
      "geometry": {
        "type": "Point",
        "coordinates": [
          14.787401358924297,
          -41.474038341664496
        ]
      }
    },
    {
      "type": "Feature",
      "properties": {
        "norad_id": 66522,
        "name": "STARLINK-35946",
        "group": "last-30-days",
        "lat": -41.03390091338264,
        "lon": 17.26133443006178,
        "alt_km": 382.87445311794,
        "timestamp": "2025-12-07T05:38:08.684566+00:00",
        "meta_object_name": "STARLINK-35946",
        "meta_object_id": "2025-265G",
        "meta_epoch": "2025-12-06T14:00:01.999872",
        "meta_mean_motion": 15.65137578,
        "meta_eccentricity": 0.00011939,
        "meta_inclination": 43.0001,
        "meta_ra_of_asc_node": 90.2126,
        "meta_arg_of_pericenter": 281.5157,
        "meta_mean_anomaly": 292.3443,
        "meta_ephemeris_type": 0,
        "meta_classification_type": "U",
        "meta_norad_cat_id": 66522,
        "meta_element_set_no": 999,
        "meta_rev_at_epoch": 400,
        "meta_bstar": -0.022268678,
        "meta_mean_motion_dot": -0.01990841,
        "meta_mean_motion_ddot": 0,
        "tle_line1": "1 66522U 25265G   25340.58335648 -.01990841  00000+0 -22269-1 0  9992",
        "tle_line2": "2 66522  43.0001  90.2126 0001193 281.5157 292.3443 15.65137578  4003"
      },
      "geometry": {
        "type": "Point",
        "coordinates": [
          17.26133443006178,
          -41.03390091338264
        ]
      }
    },
    {
      "type": "Feature",
      "properties": {
        "norad_id": 66523,
        "name": "STARLINK-35969",
        "group": "last-30-days",
        "lat": -40.540703438401614,
        "lon": 19.70518013018312,
        "alt_km": 382.88180968910183,
        "timestamp": "2025-12-07T05:38:08.684576+00:00",
        "meta_object_name": "STARLINK-35969",
        "meta_object_id": "2025-265H",
        "meta_epoch": "2025-12-06T14:00:01.999872",
        "meta_mean_motion": 15.65134659,
        "meta_eccentricity": 0.00011491,
        "meta_inclination": 43.0002,
        "meta_ra_of_asc_node": 90.208,
        "meta_arg_of_pericenter": 277.8779,
        "meta_mean_anomaly": 297.9019,
        "meta_ephemeris_type": 0,
        "meta_classification_type": "U",
        "meta_norad_cat_id": 66523,
        "meta_element_set_no": 999,
        "meta_rev_at_epoch": 400,
        "meta_bstar": -0.022230031,
        "meta_mean_motion_dot": -0.01987566,
        "meta_mean_motion_ddot": 0,
        "tle_line1": "1 66523U 25265H   25340.58335648 -.01987566  00000+0 -22230-1 0  9991",
        "tle_line2": "2 66523  43.0002  90.2080 0001149 277.8779 297.9019 15.65134659  4000"
      },
      "geometry": {
        "type": "Point",
        "coordinates": [
          19.70518013018312,
          -40.540703438401614
        ]
      }
    },
    {
      "type": "Feature",
      "properties": {
        "norad_id": 66524,
        "name": "STARLINK-35687",
        "group": "last-30-days",
        "lat": -39.997370818432685,
        "lon": 22.10654385972819,
        "alt_km": 382.80094626708524,
        "timestamp": "2025-12-07T05:38:08.684586+00:00",
        "meta_object_name": "STARLINK-35687",
        "meta_object_id": "2025-265J",
        "meta_epoch": "2025-12-06T14:00:01.999872",
        "meta_mean_motion": 15.65133671,
        "meta_eccentricity": 0.00012266,
        "meta_inclination": 43.0001,
        "meta_ra_of_asc_node": 90.2026,
        "meta_arg_of_pericenter": 278.7747,
        "meta_mean_anomaly": 298.9219,
        "meta_ephemeris_type": 0,
        "meta_classification_type": "U",
        "meta_norad_cat_id": 66524,
        "meta_element_set_no": 999,
        "meta_rev_at_epoch": 400,
        "meta_bstar": -0.022209019,
        "meta_mean_motion_dot": -0.01985902,
        "meta_mean_motion_ddot": 0,
        "tle_line1": "1 66524U 25265J   25340.58335648 -.01985902  00000+0 -22209-1 0  9990",
        "tle_line2": "2 66524  43.0001  90.2026 0001226 278.7747 298.9219 15.65133671  4007"
      },
      "geometry": {
        "type": "Point",
        "coordinates": [
          22.10654385972819,
          -39.997370818432685
        ]
      }
    },
    {
      "type": "Feature",
      "properties": {
        "norad_id": 66525,
        "name": "STARLINK-35975",
        "group": "last-30-days",
        "lat": -39.405241489987375,
        "lon": 24.4684733771567,
        "alt_km": 382.80183930695057,
        "timestamp": "2025-12-07T05:38:08.684596+00:00",
        "meta_object_name": "STARLINK-35975",
        "meta_object_id": "2025-265K",
        "meta_epoch": "2025-12-06T14:00:01.999872",
        "meta_mean_motion": 15.65135624,
        "meta_eccentricity": 0.00012028,
        "meta_inclination": 43,
        "meta_ra_of_asc_node": 90.1981,
        "meta_arg_of_pericenter": 278.0388,
        "meta_mean_anomaly": 301.5739,
        "meta_ephemeris_type": 0,
        "meta_classification_type": "U",
        "meta_norad_cat_id": 66525,
        "meta_element_set_no": 999,
        "meta_rev_at_epoch": 400,
        "meta_bstar": -0.022237469,
        "meta_mean_motion_dot": -0.01988258,
        "meta_mean_motion_ddot": 0,
        "tle_line1": "1 66525U 25265K   25340.58335648 -.01988258  00000+0 -22237-1 0  9999",
        "tle_line2": "2 66525  43.0000  90.1981 0001202 278.0388 301.5739 15.65135624  4002"
      },
      "geometry": {
        "type": "Point",
        "coordinates": [
          24.4684733771567,
          -39.405241489987375
        ]
      }
    },
    {
      "type": "Feature",
      "properties": {
        "norad_id": 66526,
        "name": "STARLINK-35932",
        "group": "last-30-days",
        "lat": -38.766590268388555,
        "lon": 26.788141242473962,
        "alt_km": 382.7962189042237,
        "timestamp": "2025-12-07T05:38:08.684606+00:00",
        "meta_object_name": "STARLINK-35932",
        "meta_object_id": "2025-265L",
        "meta_epoch": "2025-12-06T14:00:01.999872",
        "meta_mean_motion": 15.6513654,
        "meta_eccentricity": 0.00011715,
        "meta_inclination": 43.0003,
        "meta_ra_of_asc_node": 90.1934,
        "meta_arg_of_pericenter": 279.319,
        "meta_mean_anomaly": 302.2098,
        "meta_ephemeris_type": 0,
        "meta_classification_type": "U",
        "meta_norad_cat_id": 66526,
        "meta_element_set_no": 999,
        "meta_rev_at_epoch": 389,
        "meta_bstar": -0.02224685,
        "meta_mean_motion_dot": -0.01989036,
        "meta_mean_motion_ddot": 0,
        "tle_line1": "1 66526U 25265L   25340.58335648 -.01989036  00000+0 -22247-1 0  9996",
        "tle_line2": "2 66526  43.0003  90.1934 0001171 279.3190 302.2098 15.65136540  3894"
      },
      "geometry": {
        "type": "Point",
        "coordinates": [
          26.788141242473962,
          -38.766590268388555
        ]
      }
    }
  ]
}